[
    {
        "id": 1,
        "date": "2016-05-03",
        "name": "Tom",
        "state": "California",
        "city": "San Francisco",
        "address": "3650 21st St, San Francisco",
        "zip": "CA 94114",
        "family": [
            {
                "name": "Jerry",
                "state": "California",
                "city": "San Francisco",
                "address": "3650 21st St, San Francisco",
                "zip": "CA 94114"
            },
            {
                "name": "Spike",
                "state": "California",
                "city": "San Francisco",
                "address": "3650 21st St, San Francisco",
                "zip": "CA 94114"
            },
            {
                "name": "Tyke",
                "state": "California",
                "city": "San Francisco",
                "address": "3650 21st St, San Francisco",
                "zip": "CA 94114"
            }
        ]
    },
    {
        "id": 2,
        "date": "2016-05-02",
        "name": "Tom",
        "state": "California",
        "city": "San Francisco",
        "address": "3650 21st St, San Francisco",
        "zip": "CA 94114",
        "family": [
            {
                "name": "Jerry",
                "state": "California",
                "city": "San Francisco",
                "address": "3650 21st St, San Francisco",
                "zip": "CA 94114"
            },
            {
                "name": "Spike",
                "state": "California",
                "city": "San Francisco",
                "address": "3650 21st St, San Francisco",
                "zip": "CA 94114"
            },
            {
                "name": "Tyke",
                "state": "California",
                "city": "San Francisco",
                "address": "3650 21st St, San Francisco",
                "zip": "CA 94114"
            }
        ]
    },
    {
        "id": 3,
        "date": "2016-05-04",
        "name": "Tom",
        "state": "California",
        "city": "San Francisco",
        "address": "3650 21st St, San Francisco",
        "zip": "CA 94114",
        "family": [
            {
                "name": "Jerry",
                "state": "California",
                "city": "San Francisco",
                "address": "3650 21st St, San Francisco",
                "zip": "CA 94114"
            },
            {
                "name": "Spike",
                "state": "California",
                "city": "San Francisco",
                "address": "3650 21st St, San Francisco",
                "zip": "CA 94114"
            },
            {
                "name": "Tyke",
                "state": "California",
                "city": "San Francisco",
                "address": "3650 21st St, San Francisco",
                "zip": "CA 94114"
            }
        ]
    },
    {
        "id": 4,
        "date": "2016-05-01",
        "name": "Tom",
        "state": "California",
        "city": "San Francisco",
        "address": "3650 21st St, San Francisco",
        "zip": "CA 94114",
        "family": [
            {
                "name": "Jerry",
                "state": "California",
                "city": "San Francisco",
                "address": "3650 21st St, San Francisco",
                "zip": "CA 94114"
            },
            {
                "name": "Spike",
                "state": "California",
                "city": "San Francisco",
                "address": "3650 21st St, San Francisco",
                "zip": "CA 94114"
            },
            {
                "name": "Tyke",
                "state": "California",
                "city": "San Francisco",
                "address": "3650 21st St, San Francisco",
                "zip": "CA 94114"
            }
        ]
    },
    {
        "id": 5,
        "date": "2016-05-08",
        "name": "Tom",
        "state": "California",
        "city": "San Francisco",
        "address": "3650 21st St, San Francisco",
        "zip": "CA 94114",
        "family": [
            {
                "name": "Jerry",
                "state": "California",
                "city": "San Francisco",
                "address": "3650 21st St, San Francisco",
                "zip": "CA 94114"
            },
            {
                "name": "Spike",
                "state": "California",
                "city": "San Francisco",
                "address": "3650 21st St, San Francisco",
                "zip": "CA 94114"
            },
            {
                "name": "Tyke",
                "state": "California",
                "city": "San Francisco",
                "address": "3650 21st St, San Francisco",
                "zip": "CA 94114"
            }
        ]
    },
    {
        "id": 6,
        "date": "2016-05-06",
        "name": "Tom",
        "state": "California",
        "city": "San Francisco",
        "address": "3650 21st St, San Francisco",
        "zip": "CA 94114",
        "family": [
            {
                "name": "Jerry",
                "state": "California",
                "city": "San Francisco",
                "address": "3650 21st St, San Francisco",
                "zip": "CA 94114"
            },
            {
                "name": "Spike",
                "state": "California",
                "city": "San Francisco",
                "address": "3650 21st St, San Francisco",
                "zip": "CA 94114"
            },
            {
                "name": "Tyke",
                "state": "California",
                "city": "San Francisco",
                "address": "3650 21st St, San Francisco",
                "zip": "CA 94114"
            }
        ]
    },
    {
        "id": 7,
        "date": "2016-05-07",
        "name": "Tom",
        "state": "California",
        "city": "San Francisco",
        "address": "3650 21st St, San Francisco",
        "zip": "CA 94114",
        "family": [
            {
                "name": "Jerry",
                "state": "California",
                "city": "San Francisco",
                "address": "3650 21st St, San Francisco",
                "zip": "CA 94114"
            },
            {
                "name": "Spike",
                "state": "California",
                "city": "San Francisco",
                "address": "3650 21st St, San Francisco",
                "zip": "CA 94114"
            },
            {
                "name": "Tyke",
                "state": "California",
                "city": "San Francisco",
                "address": "3650 21st St, San Francisco",
                "zip": "CA 94114"
            }
        ]
    }
]